STARLINK-34455          
1 65497U 25198F   25268.15450551  .00582091  00000+0  36629-2 0  9997
2 65497  53.1573 330.7260 0000562 137.7913 222.3151 15.74487293  3124
STARLINK-35203          
1 65498U 25198G   25268.28013105  .00148955  00000+0  10021-2 0  9997
2 65498  53.1575 330.0868 0001303  22.8878 337.2200 15.74221398  3147
STARLINK-35166          
1 65499U 25198H   25268.27945233  .00246271  00000+0  16317-2 0  9997
2 65499  53.1570 330.0820 0001097  42.4239 317.6866 15.74265720  3147
STARLINK-35207          
1 65500U 25198J   25268.28046695  .00234474  00000+0  15562-2 0  9998
2 65500  53.1571 330.0882 0001122  55.2052 304.9073 15.74262316  3140
STARLINK-35140          
1 65501U 25198K   25268.27979186  .00240394  00000+0  15940-2 0  9996
2 65501  53.1573 330.0856 0001560  39.0841 321.0291 15.74265870  3146
STARLINK-35114          
1 65502U 25198L   25268.28080506  .00249486  00000+0  16524-2 0  9997
2 65502  53.1573 330.0911 0001584  34.1784 325.9338 15.74265288  3145
STARLINK-35126          
1 65503U 25198M   25268.27877683  .00206318  00000+0  13752-2 0  9994
2 65503  53.1575 330.0762 0001620  46.1051 314.0103 15.74250101  3140
STARLINK-35182          
1 65504U 25198N   25268.27911564  .00254303  00000+0  16834-2 0  9993
2 65504  53.1573 330.0795 0001197  44.1476 315.9639 15.74262371  3149
STARLINK-35072          
1 65505U 25198P   25268.27843852  .00186049  00000+0  12436-2 0  9993
2 65505  53.1569 330.0740 0001036  56.5590 303.5529 15.74247547  3140
STARLINK-35184          
1 65506U 25198Q   25268.27810128  .00256429  00000+0  16964-2 0  9994
2 65506  53.1572 330.0718 0001347  39.5155 320.5963 15.74270914  3148
STARLINK-35163          
1 65507U 25198R   25268.27742450  .00181342  00000+0  12133-2 0  9992
2 65507  53.1576 330.0673 0000956  85.9406 274.1723 15.74240275  3147
STARLINK-35119          
1 65508U 25198S   25268.21427085  .00232979  00000+0  15452-2 0  9991
2 65508  53.1574 330.3846 0001538 107.0223 253.0966 15.74282852  3132
STARLINK-35168          
1 65509U 25198T   25268.27708707  .00228140  00000+0  15159-2 0  9990
2 65509  53.1571 330.0648 0001254  47.7780 312.3346 15.74254906  3141
STARLINK-35122          
1 65510U 25198U   25268.27674908  .00242933  00000+0  16107-2 0  9997
2 65510  53.1571 330.0629 0001139  39.0448 321.0654 15.74259401  3143
STARLINK-35124          
1 65511U 25198V   25268.27641053  .00233711  00000+0  15518-2 0  9992
2 65511  53.1570 330.0607 0001174  45.3006 314.8109 15.74254310  3147
STARLINK-35149          
1 65512U 25198W   25268.27607312  .00209561  00000+0  13960-2 0  9998
2 65512  53.1572 330.0571 0001663  25.9469 334.1634 15.74252419  3146
