[{"OBJECT_NAME":"STARLINK-34455","OBJECT_ID":"2025-198F","EPOCH":"2025-09-25T03:42:29.276064","MEAN_MOTION":15.74487293,"ECCENTRICITY":5.621e-5,"INCLINATION":53.1573,"RA_OF_ASC_NODE":330.726,"ARG_OF_PERICENTER":137.7913,"MEAN_ANOMALY":222.3151,"EPHEMERIS_TYPE":0,"CLASSIFICATION_TYPE":"U","NORAD_CAT_ID":65497,"ELEMENT_SET_NO":999,"REV_AT_EPOCH":312,"BSTAR":0.0036629108,"MEAN_MOTION_DOT":0.00582091,"MEAN_MOTION_DDOT":0},{"OBJECT_NAME":"STARLINK-35203","OBJECT_ID":"2025-198G","EPOCH":"2025-09-25T06:43:23.322720","MEAN_MOTION":15.74221398,"ECCENTRICITY":0.00013034,"INCLINATION":53.1575,"RA_OF_ASC_NODE":330.0868,"ARG_OF_PERICENTER":22.8878,"MEAN_ANOMALY":337.22,"EPHEMERIS_TYPE":0,"CLASSIFICATION_TYPE":"U","NORAD_CAT_ID":65498,"ELEMENT_SET_NO":999,"REV_AT_EPOCH":314,"BSTAR":0.0010020578,"MEAN_MOTION_DOT":0.00148955,"MEAN_MOTION_DDOT":0},{"OBJECT_NAME":"STARLINK-35166","OBJECT_ID":"2025-198H","EPOCH":"2025-09-25T06:42:24.681312","MEAN_MOTION":15.7426572,"ECCENTRICITY":0.00010973,"INCLINATION":53.157,"RA_OF_ASC_NODE":330.082,"ARG_OF_PERICENTER":42.4239,"MEAN_ANOMALY":317.6866,"EPHEMERIS_TYPE":0,"CLASSIFICATION_TYPE":"U","NORAD_CAT_ID":65499,"ELEMENT_SET_NO":999,"REV_AT_EPOCH":314,"BSTAR":0.0016317189,"MEAN_MOTION_DOT":0.00246271,"MEAN_MOTION_DDOT":0},{"OBJECT_NAME":"STARLINK-35207","OBJECT_ID":"2025-198J","EPOCH":"2025-09-25T06:43:52.344480","MEAN_MOTION":15.74262316,"ECCENTRICITY":0.00011224,"INCLINATION":53.1571,"RA_OF_ASC_NODE":330.0882,"ARG_OF_PERICENTER":55.2052,"MEAN_ANOMALY":304.9073,"EPHEMERIS_TYPE":0,"CLASSIFICATION_TYPE":"U","NORAD_CAT_ID":65500,"ELEMENT_SET_NO":999,"REV_AT_EPOCH":314,"BSTAR":0.0015561765,"MEAN_MOTION_DOT":0.00234474,"MEAN_MOTION_DDOT":0},{"OBJECT_NAME":"STARLINK-35140","OBJECT_ID":"2025-198K","EPOCH":"2025-09-25T06:42:54.016704","MEAN_MOTION":15.7426587,"ECCENTRICITY":0.00015603,"INCLINATION":53.1573,"RA_OF_ASC_NODE":330.0856,"ARG_OF_PERICENTER":39.0841,"MEAN_ANOMALY":321.0291,"EPHEMERIS_TYPE":0,"CLASSIFICATION_TYPE":"U","NORAD_CAT_ID":65501,"ELEMENT_SET_NO":999,"REV_AT_EPOCH":314,"BSTAR":0.0015939914,"MEAN_MOTION_DOT":0.00240394,"MEAN_MOTION_DDOT":0},{"OBJECT_NAME":"STARLINK-35114","OBJECT_ID":"2025-198L","EPOCH":"2025-09-25T06:44:21.557184","MEAN_MOTION":15.74265288,"ECCENTRICITY":0.00015847,"INCLINATION":53.1573,"RA_OF_ASC_NODE":330.0911,"ARG_OF_PERICENTER":34.1784,"MEAN_ANOMALY":325.9338,"EPHEMERIS_TYPE":0,"CLASSIFICATION_TYPE":"U","NORAD_CAT_ID":65502,"ELEMENT_SET_NO":999,"REV_AT_EPOCH":314,"BSTAR":0.0016523637,"MEAN_MOTION_DOT":0.00249486,"MEAN_MOTION_DDOT":0},{"OBJECT_NAME":"STARLINK-35126","OBJECT_ID":"2025-198M","EPOCH":"2025-09-25T06:41:26.318112","MEAN_MOTION":15.74250101,"ECCENTRICITY":0.00016201,"INCLINATION":53.1575,"RA_OF_ASC_NODE":330.0762,"ARG_OF_PERICENTER":46.1051,"MEAN_ANOMALY":314.0103,"EPHEMERIS_TYPE":0,"CLASSIFICATION_TYPE":"U","NORAD_CAT_ID":65503,"ELEMENT_SET_NO":999,"REV_AT_EPOCH":314,"BSTAR":0.0013751557,"MEAN_MOTION_DOT":0.00206318,"MEAN_MOTION_DDOT":0},{"OBJECT_NAME":"STARLINK-35182","OBJECT_ID":"2025-198N","EPOCH":"2025-09-25T06:41:55.591296","MEAN_MOTION":15.74262371,"ECCENTRICITY":0.00011978,"INCLINATION":53.1573,"RA_OF_ASC_NODE":330.0795,"ARG_OF_PERICENTER":44.1476,"MEAN_ANOMALY":315.9639,"EPHEMERIS_TYPE":0,"CLASSIFICATION_TYPE":"U","NORAD_CAT_ID":65504,"ELEMENT_SET_NO":999,"REV_AT_EPOCH":314,"BSTAR":0.0016834262,"MEAN_MOTION_DOT":0.00254303,"MEAN_MOTION_DDOT":0},{"OBJECT_NAME":"STARLINK-35072","OBJECT_ID":"2025-198P","EPOCH":"2025-09-25T06:40:57.088128","MEAN_MOTION":15.74247547,"ECCENTRICITY":0.00010365,"INCLINATION":53.1569,"RA_OF_ASC_NODE":330.074,"ARG_OF_PERICENTER":56.559,"MEAN_ANOMALY":303.5529,"EPHEMERIS_TYPE":0,"CLASSIFICATION_TYPE":"U","NORAD_CAT_ID":65505,"ELEMENT_SET_NO":999,"REV_AT_EPOCH":314,"BSTAR":0.0012436201,"MEAN_MOTION_DOT":0.00186049,"MEAN_MOTION_DDOT":0},{"OBJECT_NAME":"STARLINK-35184","OBJECT_ID":"2025-198Q","EPOCH":"2025-09-25T06:40:27.950592","MEAN_MOTION":15.74270914,"ECCENTRICITY":0.00013472,"INCLINATION":53.1572,"RA_OF_ASC_NODE":330.0718,"ARG_OF_PERICENTER":39.5155,"MEAN_ANOMALY":320.5963,"EPHEMERIS_TYPE":0,"CLASSIFICATION_TYPE":"U","NORAD_CAT_ID":65506,"ELEMENT_SET_NO":999,"REV_AT_EPOCH":314,"BSTAR":0.0016964067,"MEAN_MOTION_DOT":0.00256429,"MEAN_MOTION_DDOT":0},{"OBJECT_NAME":"STARLINK-35163","OBJECT_ID":"2025-198R","EPOCH":"2025-09-25T06:39:29.476800","MEAN_MOTION":15.74240275,"ECCENTRICITY":9.56e-5,"INCLINATION":53.1576,"RA_OF_ASC_NODE":330.0673,"ARG_OF_PERICENTER":85.9406,"MEAN_ANOMALY":274.1723,"EPHEMERIS_TYPE":0,"CLASSIFICATION_TYPE":"U","NORAD_CAT_ID":65507,"ELEMENT_SET_NO":999,"REV_AT_EPOCH":314,"BSTAR":0.0012133227,"MEAN_MOTION_DOT":0.00181342,"MEAN_MOTION_DDOT":0},{"OBJECT_NAME":"STARLINK-35119","OBJECT_ID":"2025-198S","EPOCH":"2025-09-25T05:08:33.001440","MEAN_MOTION":15.74282852,"ECCENTRICITY":0.0001538,"INCLINATION":53.1574,"RA_OF_ASC_NODE":330.3846,"ARG_OF_PERICENTER":107.0223,"MEAN_ANOMALY":253.0966,"EPHEMERIS_TYPE":0,"CLASSIFICATION_TYPE":"U","NORAD_CAT_ID":65508,"ELEMENT_SET_NO":999,"REV_AT_EPOCH":313,"BSTAR":0.0015451973,"MEAN_MOTION_DOT":0.00232979,"MEAN_MOTION_DDOT":0},{"OBJECT_NAME":"STARLINK-35168","OBJECT_ID":"2025-198T","EPOCH":"2025-09-25T06:39:00.322848","MEAN_MOTION":15.74254906,"ECCENTRICITY":0.00012548,"INCLINATION":53.1571,"RA_OF_ASC_NODE":330.0648,"ARG_OF_PERICENTER":47.778,"MEAN_ANOMALY":312.3346,"EPHEMERIS_TYPE":0,"CLASSIFICATION_TYPE":"U","NORAD_CAT_ID":65509,"ELEMENT_SET_NO":999,"REV_AT_EPOCH":314,"BSTAR":0.0015158886,"MEAN_MOTION_DOT":0.0022814,"MEAN_MOTION_DDOT":0},{"OBJECT_NAME":"STARLINK-35122","OBJECT_ID":"2025-198U","EPOCH":"2025-09-25T06:38:31.120512","MEAN_MOTION":15.74259401,"ECCENTRICITY":0.0001139,"INCLINATION":53.1571,"RA_OF_ASC_NODE":330.0629,"ARG_OF_PERICENTER":39.0448,"MEAN_ANOMALY":321.0654,"EPHEMERIS_TYPE":0,"CLASSIFICATION_TYPE":"U","NORAD_CAT_ID":65510,"ELEMENT_SET_NO":999,"REV_AT_EPOCH":314,"BSTAR":0.0016107392,"MEAN_MOTION_DOT":0.00242933,"MEAN_MOTION_DDOT":0},{"OBJECT_NAME":"STARLINK-35124","OBJECT_ID":"2025-198V","EPOCH":"2025-09-25T06:38:01.869792","MEAN_MOTION":15.7425431,"ECCENTRICITY":0.00011749,"INCLINATION":53.157,"RA_OF_ASC_NODE":330.0607,"ARG_OF_PERICENTER":45.3006,"MEAN_ANOMALY":314.8109,"EPHEMERIS_TYPE":0,"CLASSIFICATION_TYPE":"U","NORAD_CAT_ID":65511,"ELEMENT_SET_NO":999,"REV_AT_EPOCH":314,"BSTAR":0.001551808,"MEAN_MOTION_DOT":0.00233711,"MEAN_MOTION_DDOT":0},{"OBJECT_NAME":"STARLINK-35149","OBJECT_ID":"2025-198W","EPOCH":"2025-09-25T06:37:32.717568","MEAN_MOTION":15.74252419,"ECCENTRICITY":0.00016632,"INCLINATION":53.1572,"RA_OF_ASC_NODE":330.0571,"ARG_OF_PERICENTER":25.9469,"MEAN_ANOMALY":334.1634,"EPHEMERIS_TYPE":0,"CLASSIFICATION_TYPE":"U","NORAD_CAT_ID":65512,"ELEMENT_SET_NO":999,"REV_AT_EPOCH":314,"BSTAR":0.0013960203,"MEAN_MOTION_DOT":0.00209561,"MEAN_MOTION_DDOT":0}]
